<?xml version="1.0" encoding="UTF-8"?>
<ndm xmlns:xsi="http://www.w3.org/2001/XMLSchema-instance" xsi:noNamespaceSchemaLocation="https://sanaregistry.org/r/ndmxml_unqualified/ndmxml-2.0.0-master-2.0.xsd">
<omm id="CCSDS_OMM_VERS" version="2.0">
<header><CREATION_DATE/><ORIGINATOR/></header><body><segment><metadata><OBJECT_NAME>IRIDIUM 921</OBJECT_NAME><OBJECT_ID>1997-034E</OBJECT_ID><CENTER_NAME>EARTH</CENTER_NAME><REF_FRAME>TEME</REF_FRAME><TIME_SYSTEM>UTC</TIME_SYSTEM><MEAN_ELEMENT_THEORY>SGP4</MEAN_ELEMENT_THEORY></metadata><data><meanElements><EPOCH>2024-07-27T14:03:43.354944</EPOCH><MEAN_MOTION>15.42300713</MEAN_MOTION><ECCENTRICITY>.0006021</ECCENTRICITY><INCLINATION>86.3777</INCLINATION><RA_OF_ASC_NODE>268.0680</RA_OF_ASC_NODE><ARG_OF_PERICENTER>104.2830</ARG_OF_PERICENTER><MEAN_ANOMALY>255.9094</MEAN_ANOMALY></meanElements><tleParameters><EPHEMERIS_TYPE>0</EPHEMERIS_TYPE><CLASSIFICATION_TYPE>U</CLASSIFICATION_TYPE><NORAD_CAT_ID>24873</NORAD_CAT_ID><ELEMENT_SET_NO>999</ELEMENT_SET_NO><REV_AT_EPOCH>48140</REV_AT_EPOCH><BSTAR>.85833E-3</BSTAR><MEAN_MOTION_DOT>.37101E-3</MEAN_MOTION_DOT><MEAN_MOTION_DDOT>0</MEAN_MOTION_DDOT></tleParameters></data></segment></body></omm>
<omm id="CCSDS_OMM_VERS" version="2.0">
<header><CREATION_DATE/><ORIGINATOR/></header><body><segment><metadata><OBJECT_NAME>IRIDIUM 26</OBJECT_NAME><OBJECT_ID>1997-043A</OBJECT_ID><CENTER_NAME>EARTH</CENTER_NAME><REF_FRAME>TEME</REF_FRAME><TIME_SYSTEM>UTC</TIME_SYSTEM><MEAN_ELEMENT_THEORY>SGP4</MEAN_ELEMENT_THEORY></metadata><data><meanElements><EPOCH>2024-07-28T03:36:31.243104</EPOCH><MEAN_MOTION>14.36452690</MEAN_MOTION><ECCENTRICITY>.0002495</ECCENTRICITY><INCLINATION>86.3929</INCLINATION><RA_OF_ASC_NODE>246.5642</RA_OF_ASC_NODE><ARG_OF_PERICENTER>92.2720</ARG_OF_PERICENTER><MEAN_ANOMALY>267.8763</MEAN_ANOMALY></meanElements><tleParameters><EPHEMERIS_TYPE>0</EPHEMERIS_TYPE><CLASSIFICATION_TYPE>U</CLASSIFICATION_TYPE><NORAD_CAT_ID>24903</NORAD_CAT_ID><ELEMENT_SET_NO>999</ELEMENT_SET_NO><REV_AT_EPOCH>41068</REV_AT_EPOCH><BSTAR>.16808E-3</BSTAR><MEAN_MOTION_DOT>.512E-5</MEAN_MOTION_DOT><MEAN_MOTION_DDOT>0</MEAN_MOTION_DDOT></tleParameters></data></segment></body></omm>
<omm id="CCSDS_OMM_VERS" version="2.0">
<header><CREATION_DATE/><ORIGINATOR/></header><body><segment><metadata><OBJECT_NAME>IRIDIUM 22</OBJECT_NAME><OBJECT_ID>1997-043E</OBJECT_ID><CENTER_NAME>EARTH</CENTER_NAME><REF_FRAME>TEME</REF_FRAME><TIME_SYSTEM>UTC</TIME_SYSTEM><MEAN_ELEMENT_THEORY>SGP4</MEAN_ELEMENT_THEORY></metadata><data><meanElements><EPOCH>2024-07-28T04:01:57.738432</EPOCH><MEAN_MOTION>14.35339351</MEAN_MOTION><ECCENTRICITY>.000226</ECCENTRICITY><INCLINATION>86.3931</INCLINATION><RA_OF_ASC_NODE>249.8269</RA_OF_ASC_NODE><ARG_OF_PERICENTER>92.5073</ARG_OF_PERICENTER><MEAN_ANOMALY>267.6383</MEAN_ANOMALY></meanElements><tleParameters><EPHEMERIS_TYPE>0</EPHEMERIS_TYPE><CLASSIFICATION_TYPE>U</CLASSIFICATION_TYPE><NORAD_CAT_ID>24907</NORAD_CAT_ID><ELEMENT_SET_NO>999</ELEMENT_SET_NO><REV_AT_EPOCH>41027</REV_AT_EPOCH><BSTAR>.16601E-3</BSTAR><MEAN_MOTION_DOT>.495E-5</MEAN_MOTION_DOT><MEAN_MOTION_DDOT>0</MEAN_MOTION_DDOT></tleParameters></data></segment></body></omm>
<omm id="CCSDS_OMM_VERS" version="2.0">
<header><CREATION_DATE/><ORIGINATOR/></header><body><segment><metadata><OBJECT_NAME>DUMMY MASS 1</OBJECT_NAME><OBJECT_ID>1997-048A</OBJECT_ID><CENTER_NAME>EARTH</CENTER_NAME><REF_FRAME>TEME</REF_FRAME><TIME_SYSTEM>UTC</TIME_SYSTEM><MEAN_ELEMENT_THEORY>SGP4</MEAN_ELEMENT_THEORY></metadata><data><meanElements><EPOCH>2024-07-27T15:45:26.873856</EPOCH><MEAN_MOTION>14.86305501</MEAN_MOTION><ECCENTRICITY>.0005737</ECCENTRICITY><INCLINATION>86.3339</INCLINATION><RA_OF_ASC_NODE>285.2899</RA_OF_ASC_NODE><ARG_OF_PERICENTER>197.2028</ARG_OF_PERICENTER><MEAN_ANOMALY>162.9003</MEAN_ANOMALY></meanElements><tleParameters><EPHEMERIS_TYPE>0</EPHEMERIS_TYPE><CLASSIFICATION_TYPE>U</CLASSIFICATION_TYPE><NORAD_CAT_ID>24925</NORAD_CAT_ID><ELEMENT_SET_NO>999</ELEMENT_SET_NO><REV_AT_EPOCH>45691</REV_AT_EPOCH><BSTAR>.74176E-4</BSTAR><MEAN_MOTION_DOT>.681E-5</MEAN_MOTION_DOT><MEAN_MOTION_DDOT>0</MEAN_MOTION_DDOT></tleParameters></data></segment></body></omm>
<omm id="CCSDS_OMM_VERS" version="2.0">
<header><CREATION_DATE/><ORIGINATOR/></header><body><segment><metadata><OBJECT_NAME>DUMMY MASS 2</OBJECT_NAME><OBJECT_ID>1997-048B</OBJECT_ID><CENTER_NAME>EARTH</CENTER_NAME><REF_FRAME>TEME</REF_FRAME><TIME_SYSTEM>UTC</TIME_SYSTEM><MEAN_ELEMENT_THEORY>SGP4</MEAN_ELEMENT_THEORY></metadata><data><meanElements><EPOCH>2024-07-27T18:24:38.423232</EPOCH><MEAN_MOTION>14.86063170</MEAN_MOTION><ECCENTRICITY>.000609</ECCENTRICITY><INCLINATION>86.3340</INCLINATION><RA_OF_ASC_NODE>286.7896</RA_OF_ASC_NODE><ARG_OF_PERICENTER>212.3429</ARG_OF_PERICENTER><MEAN_ANOMALY>147.7423</MEAN_ANOMALY></meanElements><tleParameters><EPHEMERIS_TYPE>0</EPHEMERIS_TYPE><CLASSIFICATION_TYPE>U</CLASSIFICATION_TYPE><NORAD_CAT_ID>24926</NORAD_CAT_ID><ELEMENT_SET_NO>999</ELEMENT_SET_NO><REV_AT_EPOCH>45671</REV_AT_EPOCH><BSTAR>.73283E-4</BSTAR><MEAN_MOTION_DOT>.669E-5</MEAN_MOTION_DOT><MEAN_MOTION_DDOT>0</MEAN_MOTION_DDOT></tleParameters></data></segment></body></omm>
<omm id="CCSDS_OMM_VERS" version="2.0">
<header><CREATION_DATE/><ORIGINATOR/></header><body><segment><metadata><OBJECT_NAME>IRIDIUM 29</OBJECT_NAME><OBJECT_ID>1997-051A</OBJECT_ID><CENTER_NAME>EARTH</CENTER_NAME><REF_FRAME>TEME</REF_FRAME><TIME_SYSTEM>UTC</TIME_SYSTEM><MEAN_ELEMENT_THEORY>SGP4</MEAN_ELEMENT_THEORY></metadata><data><meanElements><EPOCH>2024-07-27T17:45:28.421856</EPOCH><MEAN_MOTION>14.35792507</MEAN_MOTION><ECCENTRICITY>.0002049</ECCENTRICITY><INCLINATION>86.3940</INCLINATION><RA_OF_ASC_NODE>279.9023</RA_OF_ASC_NODE><ARG_OF_PERICENTER>98.0158</ARG_OF_PERICENTER><MEAN_ANOMALY>262.1272</MEAN_ANOMALY></meanElements><tleParameters><EPHEMERIS_TYPE>0</EPHEMERIS_TYPE><CLASSIFICATION_TYPE>U</CLASSIFICATION_TYPE><NORAD_CAT_ID>24944</NORAD_CAT_ID><ELEMENT_SET_NO>999</ELEMENT_SET_NO><REV_AT_EPOCH>40670</REV_AT_EPOCH><BSTAR>.18346E-3</BSTAR><MEAN_MOTION_DOT>.55E-5</MEAN_MOTION_DOT><MEAN_MOTION_DDOT>0</MEAN_MOTION_DDOT></tleParameters></data></segment></body></omm>
<omm id="CCSDS_OMM_VERS" version="2.0">
<header><CREATION_DATE/><ORIGINATOR/></header><body><segment><metadata><OBJECT_NAME>IRIDIUM 33</OBJECT_NAME><OBJECT_ID>1997-051C</OBJECT_ID><CENTER_NAME>EARTH</CENTER_NAME><REF_FRAME>TEME</REF_FRAME><TIME_SYSTEM>UTC</TIME_SYSTEM><MEAN_ELEMENT_THEORY>SGP4</MEAN_ELEMENT_THEORY></metadata><data><meanElements><EPOCH>2024-07-27T15:58:11.932896</EPOCH><MEAN_MOTION>14.34430750</MEAN_MOTION><ECCENTRICITY>.0009813</ECCENTRICITY><INCLINATION>86.3855</INCLINATION><RA_OF_ASC_NODE>279.1824</RA_OF_ASC_NODE><ARG_OF_PERICENTER>65.3477</ARG_OF_PERICENTER><MEAN_ANOMALY>294.8740</MEAN_ANOMALY></meanElements><tleParameters><EPHEMERIS_TYPE>0</EPHEMERIS_TYPE><CLASSIFICATION_TYPE>U</CLASSIFICATION_TYPE><NORAD_CAT_ID>24946</NORAD_CAT_ID><ELEMENT_SET_NO>999</ELEMENT_SET_NO><REV_AT_EPOCH>40621</REV_AT_EPOCH><BSTAR>.13815E-3</BSTAR><MEAN_MOTION_DOT>.409E-5</MEAN_MOTION_DOT><MEAN_MOTION_DDOT>0</MEAN_MOTION_DDOT></tleParameters></data></segment></body></omm>
<omm id="CCSDS_OMM_VERS" version="2.0">
<header><CREATION_DATE/><ORIGINATOR/></header><body><segment><metadata><OBJECT_NAME>IRIDIUM 28</OBJECT_NAME><OBJECT_ID>1997-051E</OBJECT_ID><CENTER_NAME>EARTH</CENTER_NAME><REF_FRAME>TEME</REF_FRAME><TIME_SYSTEM>UTC</TIME_SYSTEM><MEAN_ELEMENT_THEORY>SGP4</MEAN_ELEMENT_THEORY></metadata><data><meanElements><EPOCH>2024-07-27T17:12:20.426112</EPOCH><MEAN_MOTION>14.36747822</MEAN_MOTION><ECCENTRICITY>.0002664</ECCENTRICITY><INCLINATION>86.3945</INCLINATION><RA_OF_ASC_NODE>277.6111</RA_OF_ASC_NODE><ARG_OF_PERICENTER>90.0895</ARG_OF_PERICENTER><MEAN_ANOMALY>270.0607</MEAN_ANOMALY></meanElements><tleParameters><EPHEMERIS_TYPE>0</EPHEMERIS_TYPE><CLASSIFICATION_TYPE>U</CLASSIFICATION_TYPE><NORAD_CAT_ID>24948</NORAD_CAT_ID><ELEMENT_SET_NO>999</ELEMENT_SET_NO><REV_AT_EPOCH>40724</REV_AT_EPOCH><BSTAR>.19339E-3</BSTAR><MEAN_MOTION_DOT>.59E-5</MEAN_MOTION_DOT><MEAN_MOTION_DDOT>0</MEAN_MOTION_DDOT></tleParameters></data></segment></body></omm>

</ndm>
