IRIDIUM 921             
1 24873U 97034E   24209.58591846  .00037101  00000+0  85833-3 0  9991
2 24873  86.3777 268.0680 0006021 104.2830 255.9094 15.42300713481408
IRIDIUM 26              
1 24903U 97043A   24210.15036161  .00000512  00000+0  16808-3 0  9996
2 24903  86.3929 246.5642 0002495  92.2720 267.8763 14.36452690410686
IRIDIUM 22              
1 24907U 97043E   24210.16802938  .00000495  00000+0  16601-3 0  9995
2 24907  86.3931 249.8269 0002260  92.5073 267.6383 14.35339351410276
DUMMY MASS 1            
1 24925U 97048A   24209.65656104  .00000681  00000+0  74176-4 0  9993
2 24925  86.3339 285.2899 0005737 197.2028 162.9003 14.86305501456919
DUMMY MASS 2            
1 24926U 97048B   24209.76711138  .00000669  00000+0  73283-4 0  9999
2 24926  86.3340 286.7896 0006090 212.3429 147.7423 14.86063170456710
IRIDIUM 29              
1 24944U 97051A   24209.73991229  .00000550  00000+0  18346-3 0  9998
2 24944  86.3940 279.9023 0002049  98.0158 262.1272 14.35792507406705
IRIDIUM 33              
1 24946U 97051C   24209.66541589  .00000409  00000+0  13815-3 0  9991
2 24946  86.3855 279.1824 0009813  65.3477 294.8740 14.34430750406216
IRIDIUM 28              
1 24948U 97051E   24209.71690308  .00000590  00000+0  19339-3 0  9991
2 24948  86.3945 277.6111 0002664  90.0895 270.0607 14.36747822407241
